SatCatId,ObjectName,LaunchYear,OrbitalPeriod,LaunchMass,StatusCode,Inclination,Status,UcsData,OrbitClassEstimated,LaunchSiteCountry,Owner,UseType,Purpose,LaunchVehicleClass,TLE1,TLE2,MeanMotion,Eccentricity,OrbitClass
51984,STARLINK-3664,2022,95.44,260.0,+,53.22,Active,1,LEO,USA,USA,Commercial,Communications,Falcon,1 51984U 22025AE  25015.54208248 -.00000891  00000+0 -37907-4 0  9993,2 51984  53.2177 116.3418 0001297  94.9585 265.1555 15.08849904157939,15.08849904,0.0001297,LEO
51985,STARLINK-3651,2022,95.44,260.0,+,53.22,Active,1,LEO,USA,USA,Commercial,Communications,Falcon,1 51985U 22025AF  25015.56413304  .00002428  00000+0  17050-3 0  9999,2 51985  53.2176 116.1639 0001259  95.0839 265.0297 15.08854655157935,15.08854655,0.0001259,LEO
51986,STARLINK-3645,2022,95.44,260.0,+,53.22,Active,1,LEO,USA,USA,Commercial,Communications,Falcon,1 51986U 22025AG  25015.57788896 -.00009947  00000+0 -60700-3 0  9997,2 51986  53.2190 115.9431 0001329 100.2009 259.9133 15.08884407157945,15.08884407,0.0001329,LEO
51987,STARLINK-3644,2022,95.44,260.0,+,53.22,Active,1,LEO,USA,USA,Commercial,Communications,Falcon,1 51987U 22025AH  25015.54111835 -.00001679  00000+0 -87409-4 0  9998,2 51987  53.2181 116.2610 0001311  79.1632 280.9507 15.08845454157933,15.08845454,0.0001311,LEO
51988,STARLINK-3640,2022,95.44,260.0,+,53.22,Active,1,LEO,USA,USA,Commercial,Communications,Falcon,1 51988U 22025AJ  25015.58894200  .00001862  00000+0  13499-3 0  9996,2 51988  53.2183 116.0486 0001315 116.3327 243.7800 15.08852541157943,15.08852541,0.0001315,LEO
51989,STARLINK-3642,2022,95.44,260.0,+,53.22,Active,1,LEO,USA,USA,Commercial,Communications,Falcon,1 51989U 22025AK  25015.53743107 -.00000022  00000+0  16718-4 0  9997,2 51989  53.2174 116.2800 0001517  84.9254 275.1911 15.08842375157934,15.08842375,0.0001517,LEO
51990,STARLINK-3657,2022,95.44,260.0,+,53.22,Active,1,LEO,USA,USA,Commercial,Communications,Falcon,1 51990U 22025AL  25015.50615271 -.00001365  00000+0 -67668-4 0  9998,2 51990  53.2175  96.4163 0001694 103.5169 256.6012 15.08843973158209,15.08843973,0.0001694,LEO
51991,STARLINK-3652,2022,95.44,260.0,+,53.22,Active,1,LEO,USA,USA,Commercial,Communications,Falcon,1 51991U 22025AM  25015.59631684  .00000373  00000+0  41495-4 0  9990,2 51991  53.2173 116.0142 0001415  85.1496 274.9657 15.08839540157946,15.0883954,0.0001415,LEO
51992,STARLINK-3643,2022,95.44,260.0,+,53.22,Active,1,LEO,USA,USA,Commercial,Communications,Falcon,1 51992U 22025AN  25015.49512130 -.00000916  00000+0 -39501-4 0  9994,2 51992  53.2177  96.4704 0001541  84.1405 275.9763 15.08834246157773,15.08834246,0.0001541,LEO
51993,STARLINK-3648,2022,95.44,260.0,+,53.22,Active,1,LEO,USA,USA,Commercial,Communications,Falcon,1 51993U 22025AP  25015.58526918  .00001687  00000+0  12406-3 0  9992,2 51993  53.2185 116.0636 0001589  94.2839 265.8334 15.08836597157943,15.08836597,0.0001589,LEO
51994,STARLINK-3647,2022,95.44,260.0,+,53.22,Active,1,LEO,USA,USA,Commercial,Communications,Falcon,1 51994U 22025AQ  25015.49143020 -.00001401  00000+0 -69938-4 0  9991,2 51994  53.2187  96.4801 0001263 108.1757 251.9373 15.08848171157786,15.08848171,0.0001263,LEO
51995,STARLINK-3636,2022,95.44,260.0,+,53.22,Active,1,LEO,USA,USA,Commercial,Communications,Falcon,1 51995U 22025AR  25015.50247688 -.00000418  00000+0 -81860-5 0  9995,2 51995  53.2181  96.4324 0001340 111.6405 248.4730 15.08837874157771,15.08837874,0.000134,LEO
51996,STARLINK-3538,2022,95.44,260.0,+,53.22,Active,1,LEO,USA,USA,Commercial,Communications,Falcon,1 51996U 22025AS  25015.48775229 -.00001087  00000+0 -50212-4 0  9999,2 51996  53.2191  96.4997 0001469 109.7649 250.3501 15.08845782157785,15.08845782,0.0001469,LEO
51997,STARLINK-3589,2022,95.44,260.0,+,53.22,Active,1,LEO,USA,USA,Commercial,Communications,Falcon,1 51997U 22025AT  25015.49879860 -.00000494  00000+0 -12975-4 0  9992,2 51997  53.2177  96.4518 0001514  89.1427 270.9739 15.08836404157776,15.08836404,0.0001514,LEO
51998,STARLINK-3618,2022,95.44,260.0,+,53.22,Active,1,LEO,USA,USA,Commercial,Communications,Falcon,1 51998U 22025AU  25015.59078154 -.00006396  00000+0 -38369-3 0  9992,2 51998  53.2182  96.0385 0001625  84.6049 275.5129 15.08878325157800,15.08878325,0.0001625,LEO
51999,STARLINK-3667,2022,95.44,260.0,+,53.22,Active,1,LEO,USA,USA,Commercial,Communications,Falcon,1 51999U 22025AV  25015.48407394 -.00004339  00000+0 -25452-3 0  9997,2 51999  53.2191  96.5052 0001604  83.1028 277.0146 15.08863650157783,15.0886365,0.0001604,LEO
52000,STARLINK-3653,2022,95.44,260.0,+,53.22,Active,1,LEO,USA,USA,Commercial,Communications,Falcon,1 52000U 22025AW  25015.50982578  .00000215  00000+0  31621-4 0  9999,2 52000  53.2175  96.3145 0001349 104.9001 255.2141 15.08832531157797,15.08832531,0.0001349,LEO
52001,STARLINK-3659,2022,95.43,260.0,+,53.22,Active,1,LEO,USA,USA,Commercial,Communications,Falcon,1 52001U 22025AX  25015.58805808 -.00007236  00000+0 -43648-3 0  9991,2 52001  53.2186  96.0605 0001726 101.4969 258.6217 15.08881797157803,15.08881797,0.0001726,LEO
52002,STARLINK-3668,2022,95.44,260.0,+,53.22,Active,1,LEO,USA,USA,Commercial,Communications,Falcon,1 52002U 22025AY  25015.45464821 -.00000870  00000+0 -36551-4 0  9997,2 52002  53.2182  96.6892 0001637 102.6608 257.4567 15.08831021157785,15.08831021,0.0001637,LEO
52003,STARLINK-3654,2022,91.85,260.0,P,53.21,Active,1,LEO,USA,USA,Commercial,Communications,Falcon,1 52003U 22025AZ  25015.58334491  .00933202  00000+0  75566-2 0  9990,2 52003  53.2111  83.0313 0000893  30.2972 152.8965 15.67824703  5954,15.67824703,8.93e-05,LEO
52084,YAOGAN-34 02,2022,107.03,500.0,+,63.4,Active,1,LEO,PRC,China,Military,Earth Observation,Long March,1 52084U 22027A   25015.56502448 -.00000061  00000+0  47980-4 0  9998,2 52084  63.3979  90.8720 0089422 357.9491   2.1156 13.45385041139278,13.45385041,0.0089422,LEO
52088,STARLINK-3537,2022,95.34,260.0,+,53.22,Active,1,LEO,USA,USA,Commercial,Communications,Falcon,1 52088U 22029A   25015.37380885  .00000658  00000+0  57301-4 0  9991,2 52088  53.2201  56.2266 0001664  94.6169 265.5014 15.10315961159052,15.10315961,0.0001664,LEO
52089,STARLINK-3722,2022,95.44,260.0,+,53.22,Active,1,LEO,USA,USA,Commercial,Communications,Falcon,1 52089U 22029B   25015.58435794  .00000738  00000+0  64447-4 0  9993,2 52089  53.2192 166.0684 0000869  89.7593 270.3499 15.08838042157537,15.08838042,8.69e-05,LEO
52090,STARLINK-3712,2022,95.44,260.0,+,53.22,Active,1,LEO,USA,USA,Commercial,Communications,Falcon,1 52090U 22029C   25015.57331473  .00000262  00000+0  34565-4 0  9993,2 52090  53.2174 166.1162 0001288  86.1081 274.0058 15.08833445157534,15.08833445,0.0001288,LEO
52091,STARLINK-3713,2022,90.14,260.0,P,53.21,Active,1,LEO,USA,USA,Commercial,Communications,Falcon,1 52091U 22029D   25015.58334491  .01147807  65505-3  25141-2 0  9999,2 52091  53.2128 147.9686 0000830 307.6276 263.1045 15.97710119  5976,15.97710119,8.3e-05,LEO
52092,STARLINK-3716,2022,95.44,260.0,+,53.22,Active,1,LEO,USA,USA,Commercial,Communications,Falcon,1 52092U 22029E   25015.57699712  .00000064  00000+0  22129-4 0  9991,2 52092  53.2177 166.1004 0001299  92.4780 267.6361 15.08836090157536,15.0883609,0.0001299,LEO
52093,STARLINK-3673,2022,95.44,260.0,+,53.22,Active,1,LEO,USA,USA,Commercial,Communications,Falcon,1 52093U 22029F   25015.56690605  .00001452  00000+0  10929-3 0  9999,2 52093  53.2173 166.1558 0001197  64.2028 295.9087 15.08831315157530,15.08831315,0.0001197,LEO
52094,STARLINK-3714,2022,95.44,260.0,+,53.22,Active,1,LEO,USA,USA,Commercial,Communications,Falcon,1 52094U 22029G   25015.56963515 -.00000260  00000+0  17486-5 0  9997,2 52094  53.2173 166.1324 0001262  89.9791 270.1346 15.08833640157532,15.0883364,0.0001262,LEO
52095,STARLINK-3701,2022,95.44,260.0,+,53.22,Active,1,LEO,USA,USA,Commercial,Communications,Falcon,1 52095U 22029H   25015.55859866  .00012917  00000+0  82750-3 0  9995,2 52095  53.2171 166.1786 0001245 100.6915 259.4217 15.08870083157532,15.08870083,0.0001245,LEO
52096,STARLINK-3717,2022,95.44,260.0,+,53.22,Active,1,LEO,USA,USA,Commercial,Communications,Falcon,1 52096U 22029J   25015.60367630  .00000188  00000+0  29888-4 0  9996,2 52096  53.2168 155.9805 0001266  90.4509 269.6628 15.08837056157661,15.08837056,0.0001266,LEO
52098,STARLINK-3665,2022,95.44,260.0,+,53.22,Active,1,LEO,USA,USA,Commercial,Communications,Falcon,1 52098U 22029L   25015.56227589 -.00000104  00000+0  11557-4 0  9994,2 52098  53.2176 166.1654 0001389  92.3545 267.7606 15.08834345157534,15.08834345,0.0001389,LEO
52100,STARLINK-3702,2022,95.44,260.0,+,53.22,Active,1,LEO,USA,USA,Commercial,Communications,Falcon,1 52100U 22029N   25015.55491541  .00000925  00000+0  76230-4 0  9997,2 52100  53.2168 166.1990 0001336  91.1252 268.9893 15.08838581157533,15.08838581,0.0001336,LEO
52101,STARLINK-3703,2022,95.44,260.0,+,53.22,Active,1,LEO,USA,USA,Commercial,Communications,Falcon,1 52101U 22029P   25015.56597433  .00000709  00000+0  62658-4 0  9995,2 52101  53.2173 166.3417 0001143  75.2552 284.8567 15.08825398157524,15.08825398,0.0001143,LEO
52102,STARLINK-3709,2022,95.44,260.0,+,53.22,Active,1,LEO,USA,USA,Commercial,Communications,Falcon,1 52102U 22029Q   25015.55679666  .00000138  00000+0  26746-4 0  9998,2 52102  53.2172 156.1916 0001265  87.4932 272.6205 15.08833822157667,15.08833822,0.0001265,LEO
52103,STARLINK-3705,2022,95.44,260.0,+,53.22,Active,1,LEO,USA,USA,Commercial,Communications,Falcon,1 52103U 22029R   25015.59631674  .00004117  00000+0  27678-3 0  9995,2 52103  53.2177 156.0104 0001293 105.1893 254.9242 15.08819307157662,15.08819307,0.0001293,LEO
52105,STARLINK-3706,2022,95.44,260.0,+,53.22,Active,1,LEO,USA,USA,Commercial,Communications,Falcon,1 52105U 22029T   25015.58990867  .00000593  00000+0  55332-4 0  9991,2 52105  53.2172 156.0404 0001310  82.6838 277.4303 15.08839895157662,15.08839895,0.000131,LEO
